PANDORA
1 99152U 80229J   26036.98909722  .00000000  00000-0  37770-3 0    00
2 99152  97.8001  37.7294 0005019 184.4649 282.2899 14.87791981    01
